STARLINK-3356           
1 51133U 22005AF  26068.86373117 -.00000427  00000+0 -87583-5 0  9990
2 51133  53.2176 298.3385 0001317  89.6559 270.4584 15.08834312228750
LEMUR-2-ESPERANZA       
1 63352U 25061B   26068.87489603  .00006090  00000+0  34973-3 0  9993
2 63352  97.5568  45.1407 0016949 244.8770 115.0702 15.12770807 52576
